NORAD_CAT_ID,OBJECT_NAME,OBJECT_TYPE,EPOCH,MEAN_MOTION,ECCENTRICITY,INCLINATION,RA_OF_ASC_NODE,ARG_OF_PERICENTER,MEAN_ANOMALY,BSTAR,MEAN_MOTION_DOT,MEAN_MOTION_DDOT,TLE_LINE0,TLE_LINE1,TLE_LINE2,SEMIMAJOR_AXIS,PERIOD,APOGEE,PERIGEE,DECAYED
52689.0,STARLINK-4078,PAYLOAD,2022-05-24 16:00:00,15.80291947,0.0001409999999999,53.2162,267.0604,58.4813,135.3786,-0.0041397,-0.00732038,0.0,0 STARLINK-4078,1 52689U 22017AK  22144.66667824 -.00732038  00000-0 -41397-2 0  9991,2 52689  53.2162 267.0604 0001410  58.4813 135.3786 15.80291947  1304,6707.751,91.122,330.5619999999999,328.671,0.0
52689.0,STARLINK-4078,PAYLOAD,2022-05-24 22:00:00,15.79933984,0.0001325,53.2172,265.8108,52.5827,124.1867,-0.0051442,-0.00879305,0.0,0 STARLINK-4078,1 52689U 22053AK  22144.91667824 -.00879305  00000-0 -51442-2 0  9990,2 52689  53.2172 265.8108 0001325  52.5827 124.1867 15.79933984  1303,6708.765,91.143,331.51800000000014,329.741,0.0
52689.0,STARLINK-4078,PAYLOAD,2022-05-25 04:00:00,15.79458555,0.0001368,53.2174,264.5601,47.3321,111.9845,-0.0052131999999999,-0.00872545,0.0,0 STARLINK-4078,1 52689U 22053AK  22145.16667824 -.00872545  00000-0 -52132-2 0  9994,2 52689  53.2174 264.5601 0001368  47.3321 111.9845 15.79458555  1370,6710.111,91.17,332.894,331.05800000000005,0.0
52689.0,STARLINK-4078,PAYLOAD,2022-05-25 14:00:01,15.78675612,0.000148,53.2175,262.4819,34.6001,334.6779,-0.0054453,-0.00878743,0.0,0 STARLINK-4078,1 52689U 22053AK  22145.58334491 -.00878743  00000-0 -54453-2 0  9995,2 52689  53.2175 262.4819 0001480  34.6001 334.6779 15.78675612  1305,6712.329000000002,91.216,335.1880000000001,333.201,0.0
52689.0,STARLINK-4078,PAYLOAD,2022-05-25 20:00:01,15.78202911,0.0001196,53.2171,261.2355,46.0929,304.5958,-0.0055461999999999,-0.00876176,0.0,0 STARLINK-4078,1 52689U 22053AK  22145.83334491 -.00876176  00000-0 -55462-2 0  9992,2 52689  53.2171 261.2355 0001196  46.0929 304.5958 15.78202911  1485,6713.669,91.243,336.337,334.731,0.0
52689.0,STARLINK-4078,PAYLOAD,2022-05-25 22:00:00,15.78045326,0.0001351,53.2171,260.8193,44.6923,59.7065,-0.0055901,-0.0087682,0.0,0 STARLINK-4078,1 52689U 22053AK  22145.91667824 -.00876820  00000-0 -55901-2 0  9994,2 52689  53.2171 260.8193 0001351  44.6923  59.7065 15.78045326  1305,6714.116,91.252,336.8880000000001,335.074,0.0
52689.0,STARLINK-4078,PAYLOAD,2022-05-26 14:00:01,15.76786659,0.0001756,53.2172,257.5001,30.6572,261.7131,-0.0059164,-0.00877052,0.0,0 STARLINK-4078,1 52689U 22053AK  22146.58334491 -.00877052  00000-0 -59164-2 0  9992,2 52689  53.2172 257.5001 0001756  30.6572 261.7131 15.76786659  1309,6717.689,91.325,340.733,338.374,0.0
52689.0,STARLINK-4078,PAYLOAD,2022-05-26 20:00:01,15.76314797,0.0001388,53.2172,256.2568,44.0506,228.0288,-0.0060306,-0.008754,0.0,0 STARLINK-4078,1 52689U 22053AK  22146.83334491 -.00875400  00000-0 -60306-2 0  9995,2 52689  53.2172 256.2568 0001388  44.0506 228.0288 15.76314797  1646,6719.029,91.352,341.827,339.962,0.0
52689.0,STARLINK-4078,PAYLOAD,2022-05-26 22:00:00,15.76157415,0.0001324,53.2173,255.8421,39.0919,346.1301,-0.0060777,-0.00875998,0.0,0 STARLINK-4078,1 52689U 22053AK  22146.91667824 -.00875998  00000-0 -60777-2 0  9997,2 52689  53.2173 255.8421 0001324  39.0919 346.1301 15.76157415  1305,6719.477,91.361,342.231,340.452,0.0
52689.0,STARLINK-4078,PAYLOAD,2022-05-27 14:00:01,15.74897577,0.0001903,53.2175,252.532,32.5012,176.1557,-0.0064098,-0.00874257,0.0,0 STARLINK-4078,1 52689U 22053AK  22147.58334491 -.00874257  00000-0 -64098-2 0  9999,2 52689  53.2175 252.5320 0001903  32.5012 176.1557 15.74897577  1306,6723.06,91.435,346.204,343.645,0.0
52689.0,STARLINK-4078,PAYLOAD,2022-05-27 20:00:01,15.74426789,0.0001679,53.217,251.2921,36.656,150.0085,-0.0065563,-0.00875741,0.0,0 STARLINK-4078,1 52689U 22053AK  22147.83334491 -.00875741  00000-0 -65563-2 0  9994,2 52689  53.2170 251.2921 0001679  36.6560 150.0085 15.74426789  1802,6724.4,91.462,347.394,345.136,0.0
52689.0,STARLINK-4078,PAYLOAD,2022-05-27 22:00:01,15.74271166,0.0001455,53.2173,250.8783,38.88,260.4249,-0.0066295,-0.00879078,0.0,0 STARLINK-4078,1 52689U 22053AK  22147.91668981 -.00879078  00000-0 -66295-2 0  9997,2 52689  53.2173 250.8783 0001455  38.8800 260.4249 15.74271166  1309,6724.843000000003,91.471,347.686,345.72900000000016,0.0
52689.0,STARLINK-4078,PAYLOAD,2022-05-28 04:00:00,15.73700725,0.000165,53.2172,249.6384,38.691,238.0095,-0.0047817,-0.00636872,0.0,0 STARLINK-4078,1 52689U 22053AK  22148.16667824 -.00636872  00000-0 -47817-2 0  9992,2 52689  53.2172 249.6384 0001650  38.6910 238.0095 15.73700725  1855,6726.468000000003,91.504,349.4430000000001,347.223,0.0
52689.0,STARLINK-4078,PAYLOAD,2022-05-28 12:00:00,15.73205133,0.0001749,53.2172,247.9898,352.4992,13.4455,-1.1939e-05,-2.296e-05,0.0,0 STARLINK-4078,1 52689U 22053AK  22148.50001157 -.00002296  00000-0 -11939-4 0  9996,2 52689  53.2172 247.9898 0001749 352.4992  13.4455 15.73205133  1906,6727.880999999999,91.533,350.922,348.569,0.0
52689.0,STARLINK-4078,PAYLOAD,2022-05-28 14:00:01,15.73206823,0.000181,53.2172,247.5779,354.7536,123.4236,-3.1636999999999995e-05,-5.06e-05,0.0,0 STARLINK-4078,1 52689U 22053AK  22148.58334491 -.00005060  00000-0 -31637-4 0  9993,2 52689  53.2172 247.5779 0001810 354.7536 123.4236 15.73206823  1308,6727.876,91.533,350.958,348.523,0.0
52689.0,STARLINK-4078,PAYLOAD,2022-05-28 22:00:00,15.73283141,0.0001967,53.2146,245.922,311.6098,255.5792,-0.00046719,-0.00065915,0.0,0 STARLINK-4078,1 52689U 22053AK  22148.91667824 -.00065915  00000-0 -46719-3 0  9990,2 52689  53.2146 245.9220 0001967 311.6098 255.5792 15.73283141  1975,6727.658,91.528,350.846,348.2,0.0
52689.0,STARLINK-4078,PAYLOAD,2022-05-29 14:00:01,15.73202182,0.0001706,53.2149,242.6237,330.927,54.1771,-0.00049756,-0.00069882,0.0,0 STARLINK-4078,1 52689U 22053AK  22149.58334491 -.00069882  00000-0 -49756-3 0  9996,2 52689  53.2149 242.6237 0001706 330.9270  54.1771 15.73202182  1300,6727.889,91.533,350.902,348.606,0.0
52689.0,STARLINK-4078,PAYLOAD,2022-05-29 20:00:01,15.73205073,0.0001754999999999,53.2142,241.3862,335.8835,25.9164,-0.00034963,-0.00049414,0.0,0 STARLINK-4078,1 52689U 22053AK  22149.83334491 -.00049414  00000-0 -34963-3 0  9997,2 52689  53.2142 241.3862 0001755 335.8835  25.9164 15.73205073  2112,6727.880999999999,91.533,350.926,348.565,0.0
52689.0,STARLINK-4078,PAYLOAD,2022-05-29 21:31:03,15.73218368,0.0001262999999999,53.212,241.0714,308.2661,51.8246,0.00039022,0.00054544,0.0,0 STARLINK-4078,1 52689U 22053AK  22149.89656880  .00054544  00000-0  39022-3 0  9991,2 52689  53.2120 241.0714 0001263 308.2661  51.8246 15.73218368  2521,6727.843000000003,91.532,350.55800000000005,348.858,0.0
52689.0,STARLINK-4078,PAYLOAD,2022-05-30 12:45:54,15.73077286,0.0001983,53.2138,237.9274,342.1102,17.9848,-0.00058113,-0.0008098,0.0,0 STARLINK-4078,1 52689U 22053AK  22150.53187777 -.00080980  00000-0 -58113-3 0  9995,2 52689  53.2138 237.9274 0001983 342.1102  17.9848 15.73077286  2221,6728.245,91.54,351.444,348.776,0.0
52689.0,STARLINK-4078,PAYLOAD,2022-05-30 20:23:17,15.73201484,0.0001021,53.214,236.3552,12.2779,347.8266,0.00032937,0.0004586,0.0,0 STARLINK-4078,1 52689U 22053AK  22150.84951322  .00045860  00000-0  32937-3 0  9996,2 52689  53.2140 236.3552 0001021  12.2779 347.8266 15.73201484  2277,6727.891,91.533,350.4430000000001,349.069,0.0
52689.0,STARLINK-4078,PAYLOAD,2022-05-30 22:00:00,15.73279537,0.0001685,53.2146,236.0251,12.2628,8.4385,-0.00065469,-0.00091821,0.0,0 STARLINK-4078,1 52689U 22053AK  22150.91667824 -.00091821  00000-0 -65469-3 0  9991,2 52689  53.2146 236.0251 0001685  12.2628   8.4385 15.73279537  1304,6727.668000000002,91.529,350.667,348.4,0.0
52689.0,STARLINK-4078,PAYLOAD,2022-05-31 04:00:00,15.73208169,0.0001679,53.2147,234.7867,21.0814,336.3514,1.9884e-05,2.172e-05,0.0,0 STARLINK-4078,1 52689U 22053AK  22151.16667824  .00002172  00000-0  19884-4 0  9999,2 52689  53.2147 234.7867 0001679  21.0814 336.3514 15.73208169  2324,6727.871999999999,91.533,350.866,348.607,0.0
52689.0,STARLINK-4078,PAYLOAD,2022-05-31 05:32:10,15.73234119,0.0001222,53.2145,234.4694,16.2554,343.8506,0.00034864,0.00048665,0.0,0 STARLINK-4078,1 52689U 22053AK  22151.23067890  .00048665  00000-0  34864-3 0  9995,2 52689  53.2145 234.4694 0001222  16.2554 343.8506 15.73234119  2731,6727.7980000000025,91.531,350.485,348.841,0.0
52689.0,STARLINK-4078,PAYLOAD,2022-05-31 11:38:05,15.73235418,0.0001767,53.2144,233.2129,20.5996,339.5095,0.00015479,0.00021191,0.0,0 STARLINK-4078,1 52689U 22053AK  22151.48478752  .00021191  00000-0  15479-3 0  9991,2 52689  53.2144 233.2129 0001767  20.5996 339.5095 15.73235418  2370,6727.794,91.531,350.848,348.47,0.0
52689.0,STARLINK-4078,PAYLOAD,2022-05-31 19:15:29,15.73216303,0.0001999,53.2144,231.6411,27.9862,332.1265,4.9613e-05,6.352e-05,0.0,0 STARLINK-4078,1 52689U 22053AK  22151.80243036  .00006352  00000-0  49613-4 0  9992,2 52689  53.2144 231.6411 0001999  27.9862 332.1265 15.73216303  2422,6727.849,91.532,351.059,348.369,0.0
52689.0,STARLINK-4078,PAYLOAD,2022-05-31 20:46:58,15.73218882,0.0002003,53.2145,231.3267,28.4321,331.6808,9.9383e-05,0.00013361,0.0,0 STARLINK-4078,1 52689U 22053AK  22151.86595829  .00013361  00000-0  99383-4 0  9995,2 52689  53.2145 231.3267 0002003  28.4321 331.6808 15.73218882  2838,6727.840999999999,91.532,351.05400000000014,348.3590000000001,0.0
52689.0,STARLINK-4078,PAYLOAD,2022-06-01 12:01:46,15.73261226,0.0002097,53.2143,228.1826,29.9825,330.1315,0.00032322,0.00045107,0.0,0 STARLINK-4078,1 52689U 22053AK  22152.50122717  .00045107  00000-0  32322-3 0  9991,2 52689  53.2143 228.1826 0002097  29.9825 330.1315 15.73261226  2533,6727.721,91.53,350.996,348.175,0.0
52689.0,STARLINK-4078,PAYLOAD,2022-06-01 20:00:01,15.73242219,0.0002111,53.2138,226.5405,25.3179,56.907,-0.00054208,-0.00076159,0.0,0 STARLINK-4078,1 52689U 22053AK  22152.83334491 -.00076159  00000-0 -54208-3 0  9991,2 52689  53.2138 226.5405 0002111  25.3179  56.9070 15.73242219  2588,6727.775,91.531,351.06,348.22,0.0
